ONEWEB-0160             
1 48060U 21025U   24094.77967972 -.00000140  00000+0 -41801-3 0  9994
2 48060  87.8904 120.3681 0001673  63.1799 296.9501 13.13471026147966
ONEWEB-0163             
1 48061U 21025V   24094.76539609  .00000138  00000+0  34258-3 0  9999
2 48061  87.8903 120.3656 0002164 100.4035 259.7338 13.13470781148088
ONEWEB-0159             
1 48062U 21025W   24094.60192958  .00000331  00000+0  87118-3 0  9993
2 48062  87.8900 120.3825 0002225  95.3953 264.7430 13.13471513147984
ONEWEB-0164             
1 48063U 21025X   24094.81301710  .00000171  00000+0  43224-3 0  9997
2 48063  87.8899 120.3501 0001829  94.4879 265.6459 13.13470873147999
ONEWEB-0167             
1 48064U 21025Y   24094.61383161  .00000105  00000+0  25282-3 0  9997
2 48064  87.8903 120.4008 0002098  98.4085 261.7282 13.13469530147956
ONEWEB-0166             
1 48065U 21025Z   24094.78762313 -.00000219  00000+0 -63350-3 0  9992
2 48065  87.8897 120.3525 0002240  91.5470 268.5916 13.13470700148055
ONEWEB-0151             
1 48066U 21025AA  24094.78921765 -.00000262  00000+0 -75310-3 0  9998
2 48066  87.8900 120.3636 0001806  95.6674 264.4661 13.13471812147991
ONEWEB-0170             
1 48067U 21025AB  24094.79713897 -.00000251  00000+0 -72245-3 0  9997
2 48067  87.8901 120.3635 0001319  89.9633 270.1648 13.13471195147951
